#dP2022  7 16  0  0  0.00000000      96 __u+U ITR00 FIT  IAC
## 2218 518400.00000000   900.00000000 59776 0.0000000000000
+  116   C06C07C08C09C10C11C12C13C14C16C19C20C21C22C23C24C25
+        C26C27C28C29C30C32C33C34C35C36C37C38C39C40C41C42C43
+        C44C45C46E01E02E03E04E05E07E08E09E10E11E12E13E14E15
+        E18E19E21E24E25E26E27E30E31E33E34E36G01G02G03G04G05
+        G06G07G08G09G10G11G12G13G14G15G16G17G18G19G20G21G22
+        G23G24G25G26G27G28G29G30G31G32J02J03R01R02R03R04R05
+        R07R08R09R11R12R13R14R15R17R18R19R20R21R24  0  0  0
++         7  7  9  6  6  6  6  7  6  8  8  8  8  8  7  5  7
++         6  6  6  8  7  6  6  6  6  7  7  8  8  9  7  7  7
++         8  5  8  5  5  6  5  7  6  5  6  5  5  5  7  5  6
++         7  7  6  7  5  7  6  7  6  7  6  6  6  9  5  6  6
++         6  6  6  6  5  5  6  4  5  5  5  7  6  6  7  6  6
++         8  4  6  6  7  6  7  7  5  6  7  8  7  9  6  5  5
++         6  6  6  6  6  6  7  5  8  6  7  8  6  9  0  0  0
%c M  cc GPS ccc cccc cccc cccc cccc ccccc ccccc ccccc ccccc
%c cc cc ccc ccc cccc cccc cccc cccc ccccc ccccc ccccc ccccc
%f  0.0000000  0.000000000  0.00000000000  0.000000000000000
%f  0.0000000  0.000000000  0.00000000000  0.000000000000000
%i    0    0    0    0      0      0      0      0         0
%i    0    0    0    0      0      0      0      0         0
/* INFORMATION & ANALYSIS CENTER (IAC)      ULTRA-RAPID DATA
/* S/V CLOCKS ARE ALIGNED TO GNSS TIME                      
/* G:C1WC2W R:C1PC2P E:C1XC5X C:C2IC6I J:C1CC2S             
/* PCV:IGS14_2215 OL/AL:FES2004  NONE     YN ORB:CoN CLK:CoN
*  2022 07 16 11 45  0.00000000
PC06  -1400.730334  35837.073619  22368.005061    405.624829
PC07 -11458.597061  26113.724736 -31049.041330   -436.528088
PC08 -16346.772331  36903.000315  11847.288843    406.222712
PC09   3199.810479  39137.567723  16390.780001   -926.093946
PC10  -4501.692697  26730.864764 -32051.472137    117.966658
PC11  -4547.363726  19131.278017 -19727.887579    477.710031
PC12 -16004.305914   1977.371444 -22748.568701   -575.784036
PC13 -11670.586957  37180.693625  15860.840671     25.529657
PC14 -13349.886822  13880.166499  20235.766969    543.876556
PC16  -2940.257954  34366.866209  24614.714314    143.149866
PC19   2288.333270 -15696.438685 -22934.775085   -221.582068
PC20  20637.817953 -10526.872351 -15521.729472   -963.922581
PC21 -27830.105530  -1385.078243  -1758.706659   -689.965342
PC22 -18193.556364 -12055.725145 -17408.547729   -962.877087
PC23   7732.518893  16638.288578 -21014.226985   -946.209162
PC24 -18640.553480  18663.558539   9074.311879   -967.768933
PC25  -6443.839723  25442.546474  -9457.301998   -706.831786
PC26 -18616.494728   3062.919167  20543.607407    708.769815
PC27  19042.683978   7258.101728  19044.245471    755.049719
PC28  16142.750476  22211.796242   4956.681868     90.606667
PC29  -4237.265725 -24385.836978  12880.536812    582.407191
PC30  11171.508268 -11910.669281  22616.374139    501.126402
PC32  27809.611846   1239.641573   1863.459621   -972.462169
PC33  -2350.896142  15745.115976  22924.083407   -178.731103
PC34 -10470.699222  12946.274502 -22412.245243   -357.644457
PC35 -16406.311519 -22230.735213  -3821.463276    368.328736
PC36   7442.851287 -25354.547126   9004.770429   -973.048688
PC37  18316.415508  -1401.936296 -20990.337768   -917.629617
PC38 -20157.355511  36722.885202   3822.086843     10.487732
PC39  -6001.428348  30417.954142  28680.520164     -0.085590
PC40 -17287.372750  19684.296065 -33093.121989     -0.678491
PC41  17729.598563  12268.098987  17764.168569    -85.055472
PC42 -21494.410561  10079.305548  14729.189496   -953.487528
PC43   3497.781586  24223.475743 -13436.483461      3.222123
PC44 -19424.683774  -6663.549159 -18897.942434    725.794714
PC45  -7893.216436 -16325.725307  21224.513178    810.342720
PC46  18091.285944 -19849.090327  -7636.793074   -434.840429
PE01  20313.129665 -19138.217426   9869.795791   -516.209384
PE02 -20184.380252  19183.030985 -10019.076121    312.287279
PE03 -10309.734346  13674.998907  24145.032337   -579.562353
PE04 -10032.752114 -20885.659494 -18413.420392  -1072.600089
PE05 -24988.483905  -1724.708250  15782.540968   -162.472871
PE07  24910.558124  15893.545026   1638.628149   -688.002739
PE08  10307.677718  20772.233346  18392.424160   -564.584876
PE09 -24985.733594 -15804.556294  -1623.278190   -589.511891
PE10  -8592.879676 -25079.079597 -13190.316866   -500.918055
PE11 -13390.275249 -16476.054840 -20638.711724   2990.429808
PE12  -2632.358434 -29190.117388  -4104.746393    -64.975377
PE13  13082.087729  17183.791203  20237.470059    429.829187
PE14 -27003.591830  -3319.311897 -17697.231780  -1777.514774
PE15   2574.839615  29225.811948   3926.956424    732.919785
PE18  19559.045882   2953.826611  12629.543441  -1207.755722
PE19  12680.512318 -11885.059942 -23952.161991  -5078.158404
PE21  27031.064231  -9323.443895  -7645.672646   -746.225943
PE24 -17872.629225  -7518.845873  22352.287339   -727.871576
PE25 -27030.167954   9102.795376   7927.031724   -581.251046
PE26  15896.837398  -5885.322725  24260.726267  -1383.310650
PE27  18775.839059   6536.818501 -21923.284865   -346.065259
PE30  -1477.357044  18764.091975 -22846.266465   -676.697366
PE31    448.623566 -18413.697056  23182.558835   -500.017004
PE33   9390.940952 -23967.830526  14604.208187   -454.662119
PE34  -9267.371571  24102.773597 -14473.729999   -486.126693
PE36 -15830.827209   4848.867047 -24543.121617   -402.959929
PG01  13083.286110 -15313.970353  16819.704885    320.372373
PG02      0.000000      0.000000      0.000000 999999.999999
PG03  22959.169127 -12754.042259  -3634.807435   -308.559385
PG04  16016.268920  -5544.193779 -20461.674949   -145.249770
PG05 -24349.187398   4019.038276 -10181.605825    -89.337032
PG06  -6859.087703 -21389.418227 -14055.559228    387.172422
PG07   5457.846191 -25416.740738  -3511.570869    319.089282
PG08  21189.041585   1137.462609  16147.397617    -76.427532
PG09   5650.031377 -14634.263409 -21499.660253   -318.486460
PG10   2625.464163  15046.467884  21847.309801   -493.792743
PG11 -13136.160915  -9761.650133 -20927.741033    -10.654565
PG12 -24622.797844   9745.579144  -1331.421698   -247.262252
PG13 -21781.017394 -11402.345964  10123.448984    349.487458
PG14   -470.806926 -16017.039619  21170.550363   -111.756501
PG15 -21455.365252   1244.756832  15377.938492    -44.993955
PG16  22567.381055   2835.016500 -14358.457830   -515.634233
PG17  -9366.822816 -20487.767524  14457.115490    637.481614
PG18  -5971.316191  25527.070091  -3843.576304    111.668539
PG19 -16479.675837 -20158.334203   5589.006513    184.437432
PG20 -18007.197900  -4655.356594 -18870.830511    502.770113
PG21  15303.537844  -4959.050257  21656.397362    161.086693
PG22  17921.726589  19386.288276   4092.958827    293.281395
PG23  -8979.715063  17631.830602  17652.098129    -33.151886
PG24 -14257.387617  11470.725418  18802.718999    195.516086
PG25 -16060.216198  16972.375507 -12653.684771    349.792885
PG26  15254.429446   8781.086936 -20060.695884    218.520920
PG27  23099.535600  12259.586480   5497.828801    220.749035
PG28  -9724.558023 -12560.496558  21763.655064    334.848336
PG29  -6262.216775  13875.482728 -21807.297272   -534.056784
PG30  -1437.369476 -25648.415983   6293.745985   -534.098873
PG31   8783.046726  19245.571793 -15903.607363   -185.965392
PG32  12968.040344  19924.430988  12186.886162   -177.730238
PJ02 -36310.855529  20527.943718  -1829.876798     -1.759112
PJ03 -18097.131581  26952.495122 -22232.095017     -0.147990
PR01   2278.891475 -10797.194317 -22995.976678     11.566787
PR02 -17382.187765 -10770.316573 -15163.895108    524.288144
PR03 -25095.666447  -4202.302003   1363.448568     60.310221
PR04 -18669.870015   4308.728242  16861.793429    150.836055
PR05  -2041.257840  10590.684219  23127.018442     96.323871
PR07  25145.780933   3941.148568  -1986.841323     37.937044
PR08  18623.324999  -4467.649805 -16806.012801    -66.223486
PR09   4969.559709  11299.753399 -22310.918938     66.067975
PR11  18036.390575 -16932.772461  -6165.793357     33.135915
PR12   9561.846068 -20217.285801  12310.968977     19.319387
PR13  -3672.152450 -12142.598166  22119.994098    -24.665742
PR14 -16012.903193   4301.423240  19409.109705     24.863264
PR15 -18121.514263  17167.246222   5293.244123     94.656964
PR17 -12689.237806  -8427.929432 -20472.968854    543.976154
PR18  -7599.101217   9227.552954 -22533.401301     33.073302
PR19     81.681191  21463.146347 -13785.328762   -196.507824
PR20   9711.077253  22767.996451   6241.465761    -74.703229
PR21  12362.220422   6884.636282  21207.786981   -317.845631
PR24 -10651.423193 -22154.938724  -6838.135621    103.846208
EOF
